ONEWEB-0327             
1 49196U 21083L   23299.58634978  .00000060  00000+0  12005-3 0  9994
2 49196  87.9251 167.3387 0001971  91.2108 268.9250 13.18684164102891
ONEWEB-0328             
1 49197U 21083M   23299.58507506  .00000345  00000+0  91085-3 0  9992
2 49197  87.9009 152.1881 0001462  87.6099 272.5198 13.13470724104273
ONEWEB-0331             
1 49198U 21083N   23299.60634161  .00000007  00000+0 -14875-4 0  9993
2 49198  87.9183 167.3395 0001658  85.3066 274.8256 13.18685295102882
ONEWEB-0333             
1 49199U 21083P   23299.57976084  .00000278  00000+0  72706-3 0  9998
2 49199  87.9007 152.1918 0001681  72.8480 287.2833 13.13473694104286
ONEWEB-0334             
1 49200U 21083Q   23299.49976376  .00000178  00000+0  40593-3 0  9994
2 49200  87.9145 106.5421 0002107  65.6364 294.4990 13.20774057109452
ONEWEB-0335             
1 49201U 21083R   23299.57556241  .00000903  00000+0  24374-2 0  9993
2 49201  87.9006 152.1816 0001776  75.9588 284.1739 13.13468548104298
ONEWEB-0336             
1 49202U 21083S   23299.61998185 -.00000262  00000+0 -75362-3 0  9990
2 49202  87.9009 152.1699 0001678  76.4341 283.6975 13.13467805104296
ONEWEB-0337             
1 49203U 21083T   23299.55228853 -.00000264  00000+0 -75883-3 0  9992
2 49203  87.9008 152.1820 0001469  83.7886 276.3410 13.13469328104289
